[{"OBJECT_NAME":"SITRO-AIS 48","OBJECT_ID":"2024-199AN","EPOCH":"2026-03-09T22:14:21.736608","MEAN_MOTION":15.49861286,"ECCENTRICITY":0.00072978,"INCLINATION":97.3088,"RA_OF_ASC_NODE":302.9717,"ARG_OF_PERICENTER":300.4722,"MEAN_ANOMALY":59.5809,"EPHEMERIS_TYPE":0,"CLASSIFICATION_TYPE":"U","NORAD_CAT_ID":61771,"ELEMENT_SET_NO":999,"REV_AT_EPOCH":11901,"BSTAR":0.00079867142,"MEAN_MOTION_DOT":0.00044677,"MEAN_MOTION_DDOT":0},{"OBJECT_NAME":"STARLINK-34110","OBJECT_ID":"2025-092H","EPOCH":"2026-03-09T22:00:01.999584","MEAN_MOTION":15.4924714,"ECCENTRICITY":0.00181269,"INCLINATION":42.9979,"RA_OF_ASC_NODE":165.6091,"ARG_OF_PERICENTER":24.4978,"MEAN_ANOMALY":20.6229,"EPHEMERIS_TYPE":0,"CLASSIFICATION_TYPE":"U","NORAD_CAT_ID":63811,"ELEMENT_SET_NO":999,"REV_AT_EPOCH":578,"BSTAR":0.003973099,"MEAN_MOTION_DOT":0.00229974,"MEAN_MOTION_DDOT":0}]
